ONEWEB-0300             
1 49089U 21075Q   25097.94223062  .00000223  00000+0  58533-3 0  9999
2 49089  87.8820  77.2593 0002263  82.0768 278.0617 13.12441979178112
ONEWEB-0301             
1 49090U 21075R   25097.92600616  .00000476  00000+0  12879-2 0  9995
2 49090  87.8822  77.2679 0002199  81.8292 278.3085 13.12441406177473
ONEWEB-0302             
1 49091U 21075S   25097.91303001  .00000247  00000+0  65202-3 0  9998
2 49091  87.8822  77.2712 0001533  89.0541 271.0763 13.12444510177450
ONEWEB-0304             
1 49092U 21075T   25097.90221086  .00000077  00000+0  16463-3 0  9996
2 49092  87.9006  92.5583 0001955  93.4819 266.6536 13.17647328176259
ONEWEB-0305             
1 49093U 21075U   25097.97138768  .00000102  00000+0  22859-3 0  9993
2 49093  87.9003  92.5238 0002088 101.5961 258.5405 13.17651982176291
ONEWEB-0308             
1 49094U 21075V   25097.67781406 -.00000164  00000+0 -49090-3 0  9990
2 49094  87.8822  77.3139 0001993  84.4708 275.6648 13.12443633177436
ONEWEB-0309             
1 49095U 21075W   25097.74696939  .00000024  00000+0  28501-4 0  9993
2 49095  87.9008  92.5827 0001458  88.7047 271.4252 13.17651411176238
ONEWEB-0310             
1 49096U 21075X   25097.92114371  .00000383  00000+0  10283-2 0  9993
2 49096  87.8832  77.3005 0001806  84.4305 275.7029 13.12444435178095
